{
    "links": {
        "self": "http://www.neowsapp.com/rest/v1/neo/3376263?api_key=iIulBulltgU6a56xZRHN4H3l9WmuAYTsLGpBGhQ2"
    },
    "id": "3376263",
    "neo_reference_id": "3376263",
    "name": "(2007 JZ2)",
    "designation": "2007 JZ2",
    "nasa_jpl_url": "http://ssd.jpl.nasa.gov/sbdb.cgi?sstr=3376263",
    "absolute_magnitude_h": 25.9,
    "estimated_diameter": {
        "kilometers": {
            "estimated_diameter_min": 0.0175612318,
            "estimated_diameter_max": 0.0392681082
        },
        "meters": {
            "estimated_diameter_min": 17.561231848,
            "estimated_diameter_max": 39.2681081809
        },
        "miles": {
            "estimated_diameter_min": 0.0109120402,
            "estimated_diameter_max": 0.0244000636
        },
        "feet": {
            "estimated_diameter_min": 57.6155918963,
            "estimated_diameter_max": 128.8323800441
        }
    },
    "is_potentially_hazardous_asteroid": false,
    "close_approach_data": [
        {
            "close_approach_date": "2007-05-14",
            "close_approach_date_full": "2007-May-14 20:23",
            "epoch_date_close_approach": 1179174180000,
            "relative_velocity": {
                "kilometers_per_second": "13.6080239229",
                "kilometers_per_hour": "48988.8861223986",
                "miles_per_hour": "30439.7887131093"
            },
            "miss_distance": {
                "astronomical": "0.0181205969",
                "lunar": "7.0489121941",
                "kilometers": "2710802.699368603",
                "miles": "1684414.6900406014"
            },
            "orbiting_body": "Earth"
        }
    ],
    "orbital_data": {
        "orbit_id": "7",
        "orbit_determination_date": "2017-04-06 09:06:28",
        "first_observation_date": "2007-05-09",
        "last_observation_date": "2007-05-12",
        "data_arc_in_days": 3,
        "observations_used": 14,
        "orbit_uncertainty": "9",
        "minimum_orbit_intersection": ".0129305",
        "jupiter_tisserand_invariant": "3.814",
        "epoch_osculation": "2454230.5",
        "eccentricity": ".5369717259955564",
        "semi_major_axis": "1.848473822262327",
        "inclination": "6.75406732475933",
        "ascending_node_longitude": "48.84580437023397",
        "orbital_period": "917.9486420404228",
        "perihelion_distance": ".8558956434645218",
        "perihelion_argument": "242.460615376038",
        "aphelion_distance": "2.841052001060132",
        "perihelion_time": "2454277.049630532961",
        "mean_anomaly": "341.7442215997875",
        "mean_motion": ".392178803380317",
        "equinox": "J2000",
        "orbit_class": {
            "orbit_class_type": "APO",
            "orbit_class_description": "Near-Earth asteroid orbits which cross the Earth’s orbit similar to that of 1862 Apollo",
            "orbit_class_range": "a (semi-major axis) > 1.0 AU; q (perihelion) < 1.017 AU"
        }
    },
    "is_sentry_object": false
}